NORAD_CAT_ID,OBJECT_NAME,OBJECT_TYPE,EPOCH,MEAN_MOTION,ECCENTRICITY,INCLINATION,RA_OF_ASC_NODE,ARG_OF_PERICENTER,MEAN_ANOMALY,BSTAR,MEAN_MOTION_DOT,MEAN_MOTION_DDOT,TLE_LINE0,TLE_LINE1,TLE_LINE2,SEMIMAJOR_AXIS,PERIOD,APOGEE,PERIGEE,DECAYED
55273.0,STARLINK-5291,PAYLOAD,2024-01-13 23:33:51,14.9833292,0.0002317,69.9991,225.5356,274.6829,85.4065,-1.2793e-05,-2.46e-06,0.0,0 STARLINK-5291,1 55273U 23010E   24013.98184940 -.00000246  00000-0 -12793-4 0  9991,2 55273  69.9991 225.5356 0002317 274.6829  85.4065 14.98332920 55094,6950.184,96.107,573.659,570.439,0.0
55273.0,STARLINK-5291,PAYLOAD,2024-01-14 18:47:28,14.98328535,0.0002461,69.999,223.516,274.1419,85.9459,6.9358e-05,7.35e-06,0.0,0 STARLINK-5291,1 55273U 23010E   24014.78296951  .00000735  00000-0  69358-4 0  9996,2 55273  69.9990 223.5160 0002461 274.1419  85.9459 14.98328535 54902,6950.197,96.107,573.773,570.352,0.0
55273.0,STARLINK-5291,PAYLOAD,2024-01-14 21:59:44,14.98329811,0.0002448,69.999,223.1795,274.2603,85.8276,8.158e-05,8.81e-06,0.0,0 STARLINK-5291,1 55273U 23010E   24014.91648838  .00000881  00000-0  81580-4 0  9999,2 55273  69.9990 223.1795 0002448 274.2603  85.8276 14.98329811 55234,6950.193,96.107,573.76,570.357,0.0
55273.0,STARLINK-5291,PAYLOAD,2024-01-15 14:01:05,14.98334144,0.0002386,69.9992,221.496,274.2219,85.8668,1.8584e-05,1.29e-06,0.0,0 STARLINK-5291,1 55273U 23010E   24015.58408664  .00000129  00000-0  18584-4 0  9993,2 55273  69.9992 221.4960 0002386 274.2219  85.8668 14.98334144 55336,6950.18,96.107,573.703,570.387,0.0
55273.0,STARLINK-5291,PAYLOAD,2024-01-15 18:49:29,14.98334631,0.0002381,69.9993,220.991,274.3384,85.7503,2.4383e-05,1.98e-06,0.0,0 STARLINK-5291,1 55273U 23010E   24015.78436556  .00000198  00000-0  24383-4 0  9996,2 55273  69.9993 220.9910 0002381 274.3384  85.7503 14.98334631 55052,6950.179,96.107,573.698,570.389,0.0
55273.0,STARLINK-5291,PAYLOAD,2024-01-15 20:25:37,14.9833435,0.0002383,69.9993,220.8227,274.2669,85.8217,2.0734e-05,1.54e-06,0.0,0 STARLINK-5291,1 55273U 23010E   24015.85112562  .00000154  00000-0  20734-4 0  9990,2 55273  69.9993 220.8227 0002383 274.2669  85.8217 14.98334350 55375,6950.179,96.107,573.701,570.388,0.0
55273.0,STARLINK-5291,PAYLOAD,2024-01-16 14:03:06,14.98331611,0.0002326,69.9993,218.9715,272.8606,87.2287,-1.7432e-05,-3.01e-06,0.0,0 STARLINK-5291,1 55273U 23010E   24016.58548684 -.00000301  00000-0 -17432-4 0  9996,2 55273  69.9993 218.9715 0002326 272.8606  87.2287 14.98331611 55489,6950.188,96.107,573.67,570.436,0.0
55273.0,STARLINK-5291,PAYLOAD,2024-01-16 18:51:30,14.98331784,0.0002328,69.9994,218.4665,272.2654,87.8238,-1.5816e-05,-2.82e-06,0.0,0 STARLINK-5291,1 55273U 23010E   24016.78576634 -.00000282  00000-0 -15816-4 0  9996,2 55273  69.9994 218.4665 0002328 272.2654  87.8238 14.98331784 55201,6950.187,96.107,573.67,570.434,0.0
55273.0,STARLINK-5291,PAYLOAD,2024-01-16 22:03:46,14.98331177,0.000234,69.9993,218.1299,272.4008,87.6883,-2.3014e-05,-3.67e-06,0.0,0 STARLINK-5291,1 55273U 23010E   24016.91928675 -.00000367  00000-0 -23014-4 0  9990,2 55273  69.9993 218.1299 0002340 272.4008  87.6883 14.98331177 55535,6950.189,96.107,573.681,570.428,0.0
55273.0,STARLINK-5291,PAYLOAD,2024-01-17 14:05:06,14.98331982,0.0002348,69.9994,216.4466,275.4597,84.6294,-1.063e-05,-2.2e-06,0.0,0 STARLINK-5291,1 55273U 23010E   24017.58688532 -.00000220  00000-0 -10630-4 0  9997,2 55273  69.9994 216.4466 0002348 275.4597  84.6294 14.98331982 55635,6950.187,96.107,573.684,570.42,0.0
55273.0,STARLINK-5291,PAYLOAD,2024-01-17 18:53:31,14.98331805,0.000236,69.9994,215.9416,274.8999,85.1891,-1.2456e-05,-2.42e-06,0.0,0 STARLINK-5291,1 55273U 23010E   24017.78716516 -.00000242  00000-0 -12456-4 0  9995,2 55273  69.9994 215.9416 0002360 274.8999  85.1891 14.98331805 55359,6950.187,96.107,573.693,570.412,0.0
55273.0,STARLINK-5291,PAYLOAD,2024-01-17 22:05:47,14.98331832,0.0002358,69.9994,215.605,275.0461,85.0428,-1.1126e-05,-2.26e-06,0.0,0 STARLINK-5291,1 55273U 23010E   24017.92068493 -.00000226  00000-0 -11126-4 0  9990,2 55273  69.9994 215.6050 0002358 275.0461  85.0428 14.98331832 55685,6950.187,96.107,573.691,570.413,0.0
55273.0,STARLINK-5291,PAYLOAD,2024-01-18 12:30:58,14.98339038,0.0002517,69.9991,214.09,273.2121,86.875,9.0067e-05,9.82e-06,0.0,0 STARLINK-5291,1 55273U 23010E   24018.52151515  .00000982  00000-0  90067-4 0  9993,2 55273  69.9991 214.0900 0002517 273.2121  86.8750 14.98339038 55468,6950.165,96.106,573.779,570.281,0.0
55273.0,STARLINK-5291,PAYLOAD,2024-01-18 14:07:06,14.98340397,0.0002512,69.9991,213.922,272.4788,87.6084,0.00010557,1.167e-05,0.0,0 STARLINK-5291,1 55273U 23010E   24018.58827342  .00001167  00000-0  10557-3 0  9998,2 55273  69.9991 213.9220 0002512 272.4788  87.6084 14.98340397 55780,6950.161,96.106,573.772,570.28,0.0
55273.0,STARLINK-5291,PAYLOAD,2024-01-18 22:07:46,14.98346034,0.0002441,69.9993,213.0803,274.3304,85.7576,0.00016155,1.836e-05,0.0,0 STARLINK-5291,1 55273U 23010E   24018.92206570  .00001836  00000-0  16155-3 0  9993,2 55273  69.9993 213.0803 0002441 274.3304  85.7576 14.98346034 55831,6950.143,96.106,573.705,570.312,0.0
55273.0,STARLINK-5291,PAYLOAD,2024-01-19 14:09:07,14.98330622,0.0002,70.0005,211.3988,256.3343,103.7594,1.5812e-05,9.6e-07,0.0,0 STARLINK-5291,1 55273U 23010E   24019.58967561  .00000096  00000-0  15812-4 0  9997,2 55273  70.0005 211.3988 0002000 256.3343 103.7594 14.98330622 55935,6950.191,96.107,573.446,570.666,0.0
55273.0,STARLINK-5291,PAYLOAD,2024-01-19 18:57:32,14.98328582,0.0001862,70.0011,210.8945,246.7326,113.3637,2.9203e-06,-5.8e-07,0.0,0 STARLINK-5291,1 55273U 23010E   24019.78995674 -.00000058  00000-0  29203-5 0  9994,2 55273  70.0011 210.8945 0001862 246.7326 113.3637 14.98328582 55654,6950.197,96.107,573.356,570.768,0.0
55273.0,STARLINK-5291,PAYLOAD,2024-01-19 22:09:48,14.98325325,0.0002363,69.9996,210.5558,273.6993,86.3896,-6.9128e-05,-9.17e-06,0.0,0 STARLINK-5291,1 55273U 23010E   24019.92348171 -.00000917  00000-0 -69128-4 0  9998,2 55273  69.9996 210.5558 0002363 273.6993  86.3896 14.98325325 55980,6950.207,96.107,573.715,570.43,0.0
55273.0,STARLINK-5291,PAYLOAD,2024-01-20 14:11:09,14.98331858,0.0002377,69.9995,208.872,272.3507,87.738,-0.00019776,-2.452e-05,0.0,0 STARLINK-5291,1 55273U 23010E   24020.59108161 -.00002452  00000-0 -19776-3 0  9995,2 55273  69.9995 208.8720 0002377 272.3507  87.7380 14.98331858 56085,6950.187,96.107,573.704,570.4,0.0
55273.0,STARLINK-5291,PAYLOAD,2024-01-20 22:11:49,14.98330205,0.0002406,69.9996,208.0305,272.6332,87.4552,-0.00019269,-2.391e-05,0.0,0 STARLINK-5291,1 55273U 23010E   24020.92488236 -.00002391  00000-0 -19269-3 0  9995,2 55273  69.9996 208.0305 0002406 272.6332  87.4552 14.98330205 56138,6950.192,96.107,573.729,570.385,0.0
55273.0,STARLINK-5291,PAYLOAD,2024-01-21 22:13:50,14.98324353,0.0002504,69.9996,205.5057,273.112,86.9753,5.2504e-05,5.33e-06,0.0,0 STARLINK-5291,1 55273U 23010E   24021.92628195  .00000533  00000-0  52504-4 0  9990,2 55273  69.9996 205.5057 0002504 273.1120  86.9753 14.98324353 56284,6950.21,96.107,573.816,570.335,0.0
55273.0,STARLINK-5291,PAYLOAD,2024-01-22 22:15:51,14.98329967,0.0002559,69.9996,202.9811,273.6393,86.4473,0.00011492,1.278e-05,0.0,0 STARLINK-5291,1 55273U 23010E   24022.92767876  .00001278  00000-0  11492-3 0  9998,2 55273  69.9996 202.9811 0002559 273.6393  86.4473 14.98329967 56437,6950.193,96.107,573.837,570.279,0.0
55273.0,STARLINK-5291,PAYLOAD,2024-01-23 20:41:44,14.98329347,0.000246,70.0001,200.6252,274.8083,85.2795,3.1316e-05,2.81e-06,0.0,0 STARLINK-5291,1 55273U 23010E   24023.86232193  .00000281  00000-0  31316-4 0  9992,2 55273  70.0001 200.6252 0002460 274.8083  85.2795 14.98329347 56572,6950.195,96.107,573.77,570.35,0.0
55273.0,STARLINK-5291,PAYLOAD,2024-01-24 14:19:13,14.98327162,0.0002293,70.0005,198.7746,266.8075,93.2822,-5.9952e-05,-8.08e-06,0.0,0 STARLINK-5291,1 55273U 23010E   24024.59668634 -.00000808  00000-0 -59952-4 0  9999,2 55273  70.0005 198.7746 0002293 266.8075  93.2822 14.98327162 56682,6950.202,96.107,573.66,570.473,0.0
55273.0,STARLINK-5291,PAYLOAD,2024-01-24 19:07:38,14.98325598,0.0002333,70.0005,198.2698,268.334,91.7552,-7.6081e-05,-1e-05,0.0,0 STARLINK-5291,1 55273U 23010E   24024.79696821 -.00001000  00000-0 -76081-4 0  9997,2 55273  70.0005 198.2698 0002333 268.3340  91.7552 14.98325598 56404,6950.207,96.107,573.693,570.45,0.0
55273.0,STARLINK-5291,PAYLOAD,2024-01-24 20:43:46,14.98324938,0.0002345,70.0005,198.1013,269.1102,90.9788,-8.2488e-05,-1.077e-05,0.0,0 STARLINK-5291,1 55273U 23010E   24024.86372892 -.00001077  00000-0 -82488-4 0  9996,2 55273  70.0005 198.1013 0002345 269.1102  90.9788 14.98324938 56726,6950.209,96.107,573.703,570.444,0.0
55273.0,STARLINK-5291,PAYLOAD,2024-01-25 14:21:14,14.98330088,0.0002441,70.0003,196.2497,266.1662,93.9218,1.8603e-05,1.29e-06,0.0,0 STARLINK-5291,1 55273U 23010E   24025.59808326  .00000129  00000-0  18603-4 0  9996,2 55273  70.0003 196.2497 0002441 266.1662  93.9218 14.98330088 56830,6950.193,96.107,573.754,570.361,0.0
55273.0,STARLINK-5291,PAYLOAD,2024-01-25 19:09:38,14.9833007,0.0002456,70.0004,195.7449,267.0485,93.0393,1.7059e-05,1.11e-06,0.0,0 STARLINK-5291,1 55273U 23010E   24025.79836343  .00000111  00000-0  17059-4 0  9993,2 55273  70.0004 195.7449 0002456 267.0485  93.0393 14.98330070 56556,6950.193,96.107,573.765,570.351,0.0
55273.0,STARLINK-5291,PAYLOAD,2024-01-25 20:45:46,14.98330049,0.0002485,70.0003,195.5764,268.8642,91.2233,1.4954e-05,8.6e-07,0.0,0 STARLINK-5291,1 55273U 23010E   24025.86512353  .00000086  00000-0  14954-4 0  9995,2 55273  70.0003 195.5764 0002485 268.8642  91.2233 14.98330049 56873,6950.193,96.107,573.785,570.331,0.0
55273.0,STARLINK-5291,PAYLOAD,2024-01-26 14:23:15,14.98332193,0.0002856,69.9996,193.7239,277.6544,82.429,8.7853e-05,9.55e-06,0.0,0 STARLINK-5291,1 55273U 23010E   24026.59947977  .00000955  00000-0  87853-4 0  9993,2 55273  69.9996 193.7239 0002856 277.6544  82.4290 14.98332193 56988,6950.186,96.107,574.036,570.066,0.0
